1 57182U 23091S   23187.66460411  .00003956  00000-0  29648-3 0  9992
2 57182  97.6668 238.2961 0018698 207.9911 152.0310 15.03129430  1369
1 57182U 23091S   23187.66460411  .00003956  00000-0  29648-3 0  9992
2 57182  97.6668 238.2961 0018698 207.9911 152.0310 15.03129430  1369
1 57182U 23091S   23188.72971556  .00004717  00000-0  35250-3 0  9999
2 57182  97.6667 239.3508 0018829 204.2399 155.7942 15.03139280  1526
1 57182U 23091S   23189.12913074  .00004716  00000-0  35241-3 0  9994
2 57182  97.6666 239.7463 0018863 202.8435 157.1953 15.03142541  1580
1 57182U 23091S   23189.39540698  .00004681  00000-0  34978-3 0  9998
2 57182  97.6666 240.0100 0018895 201.9018 158.1401 15.03144668  1621
1 57182U 23091S   23189.86138987  .00004356  00000-0  32583-3 0  9993
2 57182  97.6666 240.4713 0018957 200.3186 159.7287 15.03147555  1697
1 57182U 23091S   23190.19423390  .00003936  00000-0  29482-3 0  9993
2 57182  97.6666 240.8009 0018994 199.1907 160.8605 15.03149476  1743
1 57182U 23091S   23190.39394012  .00003950  00000-0  29581-3 0  9999
2 57182  97.6666 240.9987 0019015 198.5032 161.5504 15.03151058  1774
1 57182U 23091S   23190.72678346  .00003491  00000-0  26198-3 0  9992
2 57182  97.6666 241.3282 0019064 197.3887 162.6688 15.03152619  1821
1 57182U 23091S   23191.19276300  .00003424  00000-0  25706-3 0  9998
2 57182  97.6666 241.7896 0019117 195.8737 164.1891 15.03156096  1895
1 57182U 23091S   23191.39246834  .00003410  00000-0  25598-3 0  9993
2 57182  97.6666 241.9874 0019138 195.1940 164.8713 15.03157445  1928
1 57182U 23091S   23191.79187838  .00003331  00000-0  25015-3 0  9991
2 57182  97.6666 242.3828 0019189 193.9180 166.1519 15.03160118  1986
1 57182U 23091S   23191.99158323  .00003129  00000-0  23523-3 0  9997
2 57182  97.6665 242.5806 0019203 193.2553 166.8170 15.03160977  2015
1 57182U 23091S   23192.45756022  .00003269  00000-0  24555-3 0  9990
2 57182  97.6666 243.0419 0019263 191.7296 168.3483 15.03164592  2083
1 57182U 23091S   23192.65726417  .00003677  00000-0  27554-3 0  9992
2 57182  97.6665 243.2397 0019284 191.0925 168.9878 15.03167071  2117
1 57182U 23091S   23193.12323946  .00003924  00000-0  29374-3 0  9992
2 57182  97.6665 243.7010 0019333 189.6176 170.4682 15.03171074  2186
1 57182U 23091S   23193.38951045  .00004146  00000-0  31005-3 0  9998
2 57182  97.6664 243.9647 0019362 188.7307 171.3584 15.03173608  2222
1 57182U 23091S   23193.72234870  .00004495  00000-0  33573-3 0  9995
2 57182  97.6664 244.2941 0019429 187.6911 172.4019 15.03177000  2276
1 57182U 23091S   23194.72085998  .00004122  00000-0  30815-3 0  9994
2 57182  97.6662 245.2827 0019530 184.5333 175.5719 15.03184353  2422
1 57182U 23091S   23194.85399433  .00004394  00000-0  32817-3 0  9995
2 57182  97.6661 245.4145 0019542 184.1137 175.9931 15.03186014  2445
1 57182U 23091S   23195.38653106  .00004268  00000-0  31889-3 0  9992
2 57182  97.6660 245.9417 0019587 182.4743 177.6389 15.03190123  2525
1 57182U 23091S   23195.71936517  .00004843  00000-0  36115-3 0  9995
2 57182  97.6658 246.2713 0019629 181.4580 178.6592 15.03194343  2570
1 57182U 23091S   23196.11876549  .00004940  00000-0  36824-3 0  9993
2 57182  97.6657 246.6667 0019675 180.2190 179.9030 15.03198244  2638
1 57182U 23091S   23196.38503170  .00004954  00000-0  36921-3 0  9992
2 57182  97.6655 246.9304 0019708 179.4294 180.6957 15.03200610  2671
1 57182U 23091S   23196.78443065  .00004349  00000-0  32472-3 0  9997
2 57182  97.6653 247.3258 0019752 178.2047 181.9252 15.03203087  2734
1 57182U 23091S   23197.11726200  .00004340  00000-0  32401-3 0  9993
2 57182  97.6652 247.6553 0019782 177.2234 182.9104 15.03206405  2783
1 57182U 23091S   23197.38352692  .00003885  00000-0  29053-3 0  9994
2 57182  97.6650 247.9190 0019796 176.4238 183.7132 15.03207667  2827
1 57182U 23091S   23197.78292351  .00003980  00000-0  29746-3 0  9998
2 57182  97.6649 248.3144 0019818 175.2298 184.9119 15.03211192  2889
1 57182U 23091S   23197.98262148  .00004062  00000-0  30349-3 0  9994
2 57182  97.6647 248.5121 0019832 174.6283 185.5159 15.03213017  2910
1 57182U 23091S   23198.38201613  .00004864  00000-0  36238-3 0  9992
2 57182  97.6644 248.9075 0019865 173.4240 186.7250 15.03218435  2975
1 57182U 23091S   23198.71484464  .00004753  00000-0  35420-3 0  9995
2 57182  97.6643 249.2370 0019891 172.4281 187.7249 15.03221367  3023
1 57182U 23091S   23199.11423791  .00004926  00000-0  36687-3 0  9994
2 57182  97.6640 249.6324 0019923 171.2058 188.9520 15.03225080  3085
1 57182U 23091S   23199.38049888  .00005698  00000-0  42360-3 0  9996
2 57182  97.6638 249.8960 0019936 170.3999 189.7611 15.03229406  3129
1 57182U 23091S   23199.64676009  .00004833  00000-0  36002-3 0  9992
2 57182  97.6637 250.1595 0019951 169.6010 190.5632 15.03230378  3166
1 57182U 23091S   23200.11271572  .00004667  00000-0  34773-3 0  9991
2 57182  97.6635 250.6209 0019979 168.2008 191.9689 15.03234691  3230
1 57182U 23091S   23200.37897540  .00004701  00000-0  35026-3 0  9999
2 57182  97.6633 250.8845 0019988 167.4462 192.7266 15.03237253  3272
1 57182U 23091S   23200.84492912  .00004611  00000-0  34358-3 0  9992
2 57182  97.6631 251.3458 0020012 166.0380 194.1403 15.03241437  3346
1 57182U 23091S   23201.77683268  .00004862  00000-0  36194-3 0  9999
2 57182  97.6628 252.2683 0020048 163.1959 196.9934 15.03250244  3481
1 57182U 23091S   23202.10965361  .00005430  00000-0  40361-3 0  9997
2 57182  97.6627 252.5977 0020063 162.2108 197.9824 15.03254856  3530
1 57182U 23091S   23202.37591032  .00005119  00000-0  38072-3 0  9996
2 57182  97.6625 252.8613 0020075 161.3981 198.7982 15.03256029  3572
1 57182U 23091S   23202.77529444  .00005035  00000-0  37456-3 0  9990
2 57182  97.6625 253.2565 0020093 160.1835 200.0176 15.03259812  3630
1 57182U 23091S   23205.57095131  .00005075  00000-0  37714-3 0  9993
2 57182  97.6623 256.0235 0020167 151.6021 208.6308 15.03288371  4057
1 57182U 23091S   23206.56938663  .00005425  00000-0  40274-3 0  9993
2 57182  97.6625 257.0116 0020209 148.4673 211.7768 15.03299670  4208
1 57182U 23091S   23207.43469093  .00006466  00000-0  47893-3 0  9996
2 57182  97.6628 257.8681 0020240 145.7533 214.5002 15.03311296  4331
1 57182U 23091S   23207.70093702  .00006740  00000-0  49892-3 0  9992
2 57182  97.6629 258.1316 0020248 144.9238 215.3325 15.03315195  4375
1 57182U 23091S   23207.90062131  .00006660  00000-0  49307-3 0  9998
2 57182  97.6630 258.3293 0020260 144.2910 215.9675 15.03317363  4404
1 57182U 23091S   23208.10030506  .00006725  00000-0  49778-3 0  9996
2 57182  97.6631 258.5270 0020261 143.6627 216.5979 15.03320230  4435
1 57182U 23091S   23208.43311064  .00006567  00000-0  48616-3 0  9997
2 57182  97.6632 258.8564 0020268 142.6190 217.6450 15.03324094  4489
1 57182U 23091S   23208.56623273  .00006208  00000-0  45983-3 0  9995
2 57182  97.6632 258.9882 0020270 142.2108 218.0545 15.03325170  4500
1 57182U 23091S   23208.76591547  .00006007  00000-0  44508-3 0  9994
2 57182  97.6633 259.1859 0020278 141.6042 218.6631 15.03327363  4537
1 57182U 23091S   23208.89903709  .00006005  00000-0  44488-3 0  9990
2 57182  97.6634 259.3176 0020287 141.1684 219.1004 15.03329089  4558
1 57182U 23091S   23209.09871925  .00006038  00000-0  44730-3 0  9993
2 57182  97.6635 259.5153 0020291 140.5159 219.7549 15.03331789  4584
1 57182U 23091S   23209.36496170  .00005516  00000-0  40901-3 0  9994
2 57182  97.6635 259.7788 0020296 139.6493 220.6243 15.03334014  4626
1 57182U 23091S   23209.56464318  .00005312  00000-0  39406-3 0  9997
2 57182  97.6636 259.9765 0020299 139.0297 221.2458 15.03336220  4652
1 57182U 23091S   23209.76432433  .00005289  00000-0  39234-3 0  9994
2 57182  97.6637 260.1742 0020312 138.3951 221.8824 15.03338576  4689
1 57182U 23091S   23210.09712549  .00005483  00000-0  40650-3 0  9991
2 57182  97.6638 260.5036 0020325 137.3367 222.9441 15.03342947  4734
1 57182U 23091S   23210.36336570  .00006033  00000-0  44672-3 0  9997
2 57182  97.6639 260.7672 0020333 136.4400 223.8435 15.03347056  4773
1 57182U 23091S   23210.76272523  .00005985  00000-0  44315-3 0  9997
2 57182  97.6640 261.1626 0020348 135.1743 225.1131 15.03351716  4834
1 57182U 23091S   23211.09552369  .00006136  00000-0  45414-3 0  9993
2 57182  97.6641 261.4921 0020361 134.0893 226.2013 15.03356101  4884
1 57182U 23091S   23211.42832148  .00005752  00000-0  42599-3 0  9990
2 57182  97.6641 261.8216 0020375 132.9897 227.3040 15.03359070  4937
1 57182U 23091S   23211.76111797  .00006034  00000-0  44655-3 0  9996
2 57182  97.6642 262.1512 0020386 131.9357 228.3610 15.03363943  4986
